{
  "type": "FeatureCollection",
  "features": [
    {
      "type": "Feature",
      "properties": {
        "norad_id": 66674,
        "name": "TRANSPORTER-15 J",
        "group": "last-30-days",
        "lat": 13.353647250051303,
        "lon": 64.22346254976398,
        "alt_km": 517.9787236403672,
        "timestamp": "2025-12-20T09:36:00.351977+00:00",
        "meta_object_name": "TRANSPORTER-15 J",
        "meta_object_id": "2025-276J",
        "meta_epoch": "2025-12-20T04:47:26.714400",
        "meta_mean_motion": 15.16715913,
        "meta_eccentricity": 0.0004944,
        "meta_inclination": 97.4383,
        "meta_ra_of_asc_node": 65.8041,
        "meta_arg_of_pericenter": 266.7808,
        "meta_mean_anomaly": 93.2859,
        "meta_ephemeris_type": 0,
        "meta_classification_type": "U",
        "meta_norad_cat_id": 66674,
        "meta_element_set_no": 999,
        "meta_rev_at_epoch": 325,
        "meta_bstar": 0.00025742,
        "meta_mean_motion_dot": 4.981e-05,
        "meta_mean_motion_ddot": 0,
        "tle_line1": "1 66674U 25276J   25354.19961475  .00004981  00000+0  25742-3 0  9996",
        "tle_line2": "2 66674  97.4383  65.8041 0004944 266.7808  93.2859 15.16715913  3252"
      },
      "geometry": {
        "type": "Point",
        "coordinates": [
          64.22346254976398,
          13.353647250051303
        ]
      }
    },
    {
      "type": "Feature",
      "properties": {
        "norad_id": 66675,
        "name": "TRANSPORTER-15 K",
        "group": "last-30-days",
        "lat": 22.203656026481642,
        "lon": 62.9502842292882,
        "alt_km": 516.1262746124439,
        "timestamp": "2025-12-20T09:36:00.351987+00:00",
        "meta_object_name": "TRANSPORTER-15 K",
        "meta_object_id": "2025-276K",
        "meta_epoch": "2025-12-20T01:35:09.671424",
        "meta_mean_motion": 15.16956079,
        "meta_eccentricity": 0.0004966,
        "meta_inclination": 97.4401,
        "meta_ra_of_asc_node": 65.6801,
        "meta_arg_of_pericenter": 271.4608,
        "meta_mean_anomaly": 88.6057,
        "meta_ephemeris_type": 0,
        "meta_classification_type": "U",
        "meta_norad_cat_id": 66675,
        "meta_element_set_no": 999,
        "meta_rev_at_epoch": 323,
        "meta_bstar": 0.00040289,
        "meta_mean_motion_dot": 7.889e-05,
        "meta_mean_motion_ddot": 0,
        "tle_line1": "1 66675U 25276K   25354.06608416  .00007889  00000+0  40289-3 0  9999",
        "tle_line2": "2 66675  97.4401  65.6801 0004966 271.4608  88.6057 15.16956079  3237"
      },
      "geometry": {
        "type": "Point",
        "coordinates": [
          62.9502842292882,
          22.203656026481642
        ]
      }
    },
    {
      "type": "Feature",
      "properties": {
        "norad_id": 66676,
        "name": "TRANSPORTER-15 L",
        "group": "last-30-days",
        "lat": 14.712725484229416,
        "lon": 64.03959098942619,
        "alt_km": 517.5427012232412,
        "timestamp": "2025-12-20T09:36:00.351997+00:00",
        "meta_object_name": "TRANSPORTER-15 L",
        "meta_object_id": "2025-276L",
        "meta_epoch": "2025-12-20T03:12:05.608800",
        "meta_mean_motion": 15.1676344,
        "meta_eccentricity": 0.0004752,
        "meta_inclination": 97.4395,
        "meta_ra_of_asc_node": 65.7443,
        "meta_arg_of_pericenter": 269.117,
        "meta_mean_anomaly": 90.9518,
        "meta_ephemeris_type": 0,
        "meta_classification_type": "U",
        "meta_norad_cat_id": 66676,
        "meta_element_set_no": 999,
        "meta_rev_at_epoch": 324,
        "meta_bstar": 0.00033349,
        "meta_mean_motion_dot": 6.482e-05,
        "meta_mean_motion_ddot": 0,
        "tle_line1": "1 66676U 25276L   25354.13339825  .00006482  00000+0  33349-3 0  9990",
        "tle_line2": "2 66676  97.4395  65.7443 0004752 269.1170  90.9518 15.16763440  3241"
      },
      "geometry": {
        "type": "Point",
        "coordinates": [
          64.03959098942619,
          14.712725484229416
        ]
      }
    },
    {
      "type": "Feature",
      "properties": {
        "norad_id": 66677,
        "name": "TRANSPORTER-15 M",
        "group": "last-30-days",
        "lat": 51.001105204624075,
        "lon": 56.73141633377797,
        "alt_km": 510.85861423968163,
        "timestamp": "2025-12-20T09:36:00.352007+00:00",
        "meta_object_name": "TRANSPORTER-15 M",
        "meta_object_id": "2025-276M",
        "meta_epoch": "2025-12-19T14:22:53.585184",
        "meta_mean_motion": 15.17398982,
        "meta_eccentricity": 0.0003817,
        "meta_inclination": 97.4397,
        "meta_ra_of_asc_node": 65.2316,
        "meta_arg_of_pericenter": 279.7196,
        "meta_mean_anomaly": 80.3606,
        "meta_ephemeris_type": 0,
        "meta_classification_type": "U",
        "meta_norad_cat_id": 66677,
        "meta_element_set_no": 999,
        "meta_rev_at_epoch": 316,
        "meta_bstar": 0.00046126,
        "meta_mean_motion_dot": 9.158e-05,
        "meta_mean_motion_ddot": 0,
        "tle_line1": "1 66677U 25276M   25353.59923131  .00009158  00000+0  46126-3 0  9999",
        "tle_line2": "2 66677  97.4397  65.2316 0003817 279.7196  80.3606 15.17398982  3162"
      },
      "geometry": {
        "type": "Point",
        "coordinates": [
          56.73141633377797,
          51.001105204624075
        ]
      }
    },
    {
      "type": "Feature",
      "properties": {
        "norad_id": 66678,
        "name": "TRANSPORTER-15 N",
        "group": "last-30-days",
        "lat": 17.713234583140295,
        "lon": 63.62237818616143,
        "alt_km": 517.5135475755151,
        "timestamp": "2025-12-20T09:36:00.352017+00:00",
        "meta_object_name": "TRANSPORTER-15 N",
        "meta_object_id": "2025-276N",
        "meta_epoch": "2025-12-20T03:11:18.500064",
        "meta_mean_motion": 15.16819496,
        "meta_eccentricity": 0.0004804,
        "meta_inclination": 97.443,
        "meta_ra_of_asc_node": 65.7532,
        "meta_arg_of_pericenter": 260.9697,
        "meta_mean_anomaly": 99.0992,
        "meta_ephemeris_type": 0,
        "meta_classification_type": "U",
        "meta_norad_cat_id": 66678,
        "meta_element_set_no": 999,
        "meta_rev_at_epoch": 324,
        "meta_bstar": 0.00035575,
        "meta_mean_motion_dot": 6.93e-05,
        "meta_mean_motion_ddot": 0,
        "tle_line1": "1 66678U 25276N   25354.13285301  .00006930  00000+0  35575-3 0  9992",
        "tle_line2": "2 66678  97.4430  65.7532 0004804 260.9697  99.0992 15.16819496  3242"
      },
      "geometry": {
        "type": "Point",
        "coordinates": [
          63.62237818616143,
          17.713234583140295
        ]
      }
    },
    {
      "type": "Feature",
      "properties": {
        "norad_id": 66679,
        "name": "TRANSPORTER-15 P",
        "group": "last-30-days",
        "lat": 12.20288756324388,
        "lon": 64.37959632413416,
        "alt_km": 518.0072353148498,
        "timestamp": "2025-12-20T09:36:00.352031+00:00",
        "meta_object_name": "TRANSPORTER-15 P",
        "meta_object_id": "2025-276P",
        "meta_epoch": "2025-12-20T03:12:44.271072",
        "meta_mean_motion": 15.16669793,
        "meta_eccentricity": 0.0004546,
        "meta_inclination": 97.4373,
        "meta_ra_of_asc_node": 65.7374,
        "meta_arg_of_pericenter": 269.6392,
        "meta_mean_anomaly": 90.4321,
        "meta_ephemeris_type": 0,
        "meta_classification_type": "U",
        "meta_norad_cat_id": 66679,
        "meta_element_set_no": 999,
        "meta_rev_at_epoch": 324,
        "meta_bstar": 0.00030165,
        "meta_mean_motion_dot": 5.84e-05,
        "meta_mean_motion_ddot": 0,
        "tle_line1": "1 66679U 25276P   25354.13384573  .00005840  00000+0  30165-3 0  9993",
        "tle_line2": "2 66679  97.4373  65.7374 0004546 269.6392  90.4321 15.16669793  3248"
      },
      "geometry": {
        "type": "Point",
        "coordinates": [
          64.37959632413416,
          12.20288756324388
        ]
      }
    },
    {
      "type": "Feature",
      "properties": {
        "norad_id": 66680,
        "name": "TRANSPORTER-15 Q",
        "group": "last-30-days",
        "lat": 18.915088087516388,
        "lon": 63.44527401864596,
        "alt_km": 517.4964260976194,
        "timestamp": "2025-12-20T09:36:00.352041+00:00",
        "meta_object_name": "TRANSPORTER-15 Q",
        "meta_object_id": "2025-276Q",
        "meta_epoch": "2025-12-20T03:10:58.943424",
        "meta_mean_motion": 15.16796846,
        "meta_eccentricity": 0.0004629,
        "meta_inclination": 97.4424,
        "meta_ra_of_asc_node": 65.7502,
        "meta_arg_of_pericenter": 258.9467,
        "meta_mean_anomaly": 101.1246,
        "meta_ephemeris_type": 0,
        "meta_classification_type": "U",
        "meta_norad_cat_id": 66680,
        "meta_element_set_no": 999,
        "meta_rev_at_epoch": 324,
        "meta_bstar": 0.00026859,
        "meta_mean_motion_dot": 5.212e-05,
        "meta_mean_motion_ddot": 0,
        "tle_line1": "1 66680U 25276Q   25354.13262666  .00005212  00000+0  26859-3 0  9991",
        "tle_line2": "2 66680  97.4424  65.7502 0004629 258.9467 101.1246 15.16796846  3242"
      },
      "geometry": {
        "type": "Point",
        "coordinates": [
          63.44527401864596,
          18.915088087516388
        ]
      }
    }
  ]
}